{
  "type": "FeatureCollection",
  "features": [
    {
      "type": "Feature",
      "properties": {
        "norad_id": 66542,
        "name": "STARLINK-35833",
        "group": "last-30-days",
        "lat": 42.93349779169363,
        "lon": 152.0616095582155,
        "alt_km": 409.28205044291553,
        "timestamp": "2025-12-10T18:56:58.832974+00:00",
        "meta_object_name": "STARLINK-35833",
        "meta_object_id": "2025-265AC",
        "meta_epoch": "2025-12-10T12:00:02.998944",
        "meta_mean_motion": 15.50661791,
        "meta_eccentricity": 0.000142,
        "meta_inclination": 42.9997,
        "meta_ra_of_asc_node": 66.9973,
        "meta_arg_of_pericenter": 268.8566,
        "meta_mean_anomaly": 0.5994,
        "meta_ephemeris_type": 0,
        "meta_classification_type": "U",
        "meta_norad_cat_id": 66542,
        "meta_element_set_no": 999,
        "meta_rev_at_epoch": 463,
        "meta_bstar": -0.0033664,
        "meta_mean_motion_dot": -0.00193598,
        "meta_mean_motion_ddot": 0,
        "tle_line1": "1 66542U 25265AC  25344.50003471 -.00193598  00000+0 -33664-2 0  9991",
        "tle_line2": "2 66542  42.9997  66.9973 0001420 268.8566   0.5994 15.50661791  4634"
      },
      "geometry": {
        "type": "Point",
        "coordinates": [
          152.0616095582155,
          42.93349779169363
        ]
      }
    },
    {
      "type": "Feature",
      "properties": {
        "norad_id": 66543,
        "name": "STARLINK-35315",
        "group": "last-30-days",
        "lat": 42.97758305166861,
        "lon": 154.65894127621598,
        "alt_km": 409.2980930919721,
        "timestamp": "2025-12-10T18:56:58.832985+00:00",
        "meta_object_name": "STARLINK-35315",
        "meta_object_id": "2025-265AD",
        "meta_epoch": "2025-12-10T12:00:02.998944",
        "meta_mean_motion": 15.50630742,
        "meta_eccentricity": 0.0001484,
        "meta_inclination": 42.9998,
        "meta_ra_of_asc_node": 66.9913,
        "meta_arg_of_pericenter": 273.523,
        "meta_mean_anomaly": 357.8493,
        "meta_ephemeris_type": 0,
        "meta_classification_type": "U",
        "meta_norad_cat_id": 66543,
        "meta_element_set_no": 999,
        "meta_rev_at_epoch": 452,
        "meta_bstar": -0.0023272,
        "meta_mean_motion_dot": -0.0013479,
        "meta_mean_motion_ddot": 0,
        "tle_line1": "1 66543U 25265AD  25344.50003471 -.00134790  00000+0 -23272-2 0  9995",
        "tle_line2": "2 66543  42.9998  66.9913 0001484 273.5230 357.8493 15.50630742  4523"
      },
      "geometry": {
        "type": "Point",
        "coordinates": [
          154.65894127621598,
          42.97758305166861
        ]
      }
    },
    {
      "type": "Feature",
      "properties": {
        "norad_id": 66544,
        "name": "STARLINK-35728",
        "group": "last-30-days",
        "lat": 42.964789640381426,
        "lon": 157.09710641246608,
        "alt_km": 409.4951434354307,
        "timestamp": "2025-12-10T18:56:58.832994+00:00",
        "meta_object_name": "STARLINK-35728",
        "meta_object_id": "2025-265AE",
        "meta_epoch": "2025-12-10T12:00:02.998944",
        "meta_mean_motion": 15.50488163,
        "meta_eccentricity": 0.0001792,
        "meta_inclination": 42.9994,
        "meta_ra_of_asc_node": 66.9869,
        "meta_arg_of_pericenter": 280.8743,
        "meta_mean_anomaly": 352.359,
        "meta_ephemeris_type": 0,
        "meta_classification_type": "U",
        "meta_norad_cat_id": 66544,
        "meta_element_set_no": 999,
        "meta_rev_at_epoch": 463,
        "meta_bstar": 0.0016603,
        "meta_mean_motion_dot": 0.00097972,
        "meta_mean_motion_ddot": 0,
        "tle_line1": "1 66544U 25265AE  25344.50003471  .00097972  00000+0  16603-2 0  9994",
        "tle_line2": "2 66544  42.9994  66.9869 0001792 280.8743 352.3590 15.50488163  4630"
      },
      "geometry": {
        "type": "Point",
        "coordinates": [
          157.09710641246608,
          42.964789640381426
        ]
      }
    },
    {
      "type": "Feature",
      "properties": {
        "norad_id": 66545,
        "name": "SHIJIAN-30A",
        "group": "last-30-days",
        "lat": 42.466697717391284,
        "lon": 28.1161490795897,
        "alt_km": 510.42812467603744,
        "timestamp": "2025-12-10T18:56:58.833007+00:00",
        "meta_object_name": "SHIJIAN-30A",
        "meta_object_id": "2025-266A",
        "meta_epoch": "2025-12-10T12:21:35.002944",
        "meta_mean_motion": 15.15576851,
        "meta_eccentricity": 0.0012757,
        "meta_inclination": 51.7988,
        "meta_ra_of_asc_node": 343.2848,
        "meta_arg_of_pericenter": 348.3559,
        "meta_mean_anomaly": 11.7121,
        "meta_ephemeris_type": 0,
        "meta_classification_type": "U",
        "meta_norad_cat_id": 66545,
        "meta_element_set_no": 999,
        "meta_rev_at_epoch": 324,
        "meta_bstar": 0.00082682,
        "meta_mean_motion_dot": 0.00015643,
        "meta_mean_motion_ddot": 0,
        "tle_line1": "1 66545U 25266A   25344.51498846  .00015643  00000+0  82682-3 0  9997",
        "tle_line2": "2 66545  51.7988 343.2848 0012757 348.3559  11.7121 15.15576851  3243"
      },
      "geometry": {
        "type": "Point",
        "coordinates": [
          28.1161490795897,
          42.466697717391284
        ]
      }
    },
    {
      "type": "Feature",
      "properties": {
        "norad_id": 66546,
        "name": "SHIJIAN-30B",
        "group": "last-30-days",
        "lat": 39.80700776941996,
        "lon": 23.024666565664795,
        "alt_km": 511.316556337345,
        "timestamp": "2025-12-10T18:56:58.833019+00:00",
        "meta_object_name": "SHIJIAN-30B",
        "meta_object_id": "2025-266B",
        "meta_epoch": "2025-12-10T12:22:44.526432",
        "meta_mean_motion": 15.15324418,
        "meta_eccentricity": 0.0010395,
        "meta_inclination": 51.797,
        "meta_ra_of_asc_node": 343.2869,
        "meta_arg_of_pericenter": 351.0951,
        "meta_mean_anomaly": 8.9839,
        "meta_ephemeris_type": 0,
        "meta_classification_type": "U",
        "meta_norad_cat_id": 66546,
        "meta_element_set_no": 999,
        "meta_rev_at_epoch": 324,
        "meta_bstar": 0.00081569,
        "meta_mean_motion_dot": 0.00015307,
        "meta_mean_motion_ddot": 0,
        "tle_line1": "1 66546U 25266B   25344.51579313  .00015307  00000+0  81569-3 0  9997",
        "tle_line2": "2 66546  51.7970 343.2869 0010395 351.0951   8.9839 15.15324418  3245"
      },
      "geometry": {
        "type": "Point",
        "coordinates": [
          23.024666565664795,
          39.80700776941996
        ]
      }
    },
    {
      "type": "Feature",
      "properties": {
        "norad_id": 66547,
        "name": "SHIJIAN-30C",
        "group": "last-30-days",
        "lat": 38.189619937216804,
        "lon": 20.290872097514647,
        "alt_km": 511.6045392363594,
        "timestamp": "2025-12-10T18:56:58.833029+00:00",
        "meta_object_name": "SHIJIAN-30C",
        "meta_object_id": "2025-266C",
        "meta_epoch": "2025-12-10T12:23:28.467744",
        "meta_mean_motion": 15.15435792,
        "meta_eccentricity": 0.0011375,
        "meta_inclination": 51.7978,
        "meta_ra_of_asc_node": 343.2921,
        "meta_arg_of_pericenter": 342.8969,
        "meta_mean_anomaly": 17.1622,
        "meta_ephemeris_type": 0,
        "meta_classification_type": "U",
        "meta_norad_cat_id": 66547,
        "meta_element_set_no": 999,
        "meta_rev_at_epoch": 324,
        "meta_bstar": 0.00085347,
        "meta_mean_motion_dot": 0.00016087,
        "meta_mean_motion_ddot": 0,
        "tle_line1": "1 66547U 25266C   25344.51630171  .00016087  00000+0  85347-3 0  9992",
        "tle_line2": "2 66547  51.7978 343.2921 0011375 342.8969  17.1622 15.15435792  3249"
      },
      "geometry": {
        "type": "Point",
        "coordinates": [
          20.290872097514647,
          38.189619937216804
        ]
      }
    },
    {
      "type": "Feature",
      "properties": {
        "norad_id": 66548,
        "name": "CZ-2C R/B",
        "group": "last-30-days",
        "lat": 52.028464523386994,
        "lon": 71.97812880366423,
        "alt_km": 453.48665920447456,
        "timestamp": "2025-12-10T18:56:58.833039+00:00",
        "meta_object_name": "CZ-2C R/B",
        "meta_object_id": "2025-266D",
        "meta_epoch": "2025-12-10T10:42:49.644288",
        "meta_mean_motion": 15.30100759,
        "meta_eccentricity": 0.0084034,
        "meta_inclination": 52.0564,
        "meta_ra_of_asc_node": 342.2049,
        "meta_arg_of_pericenter": 165.1673,
        "meta_mean_anomaly": 195.1807,
        "meta_ephemeris_type": 0,
        "meta_classification_type": "U",
        "meta_norad_cat_id": 66548,
        "meta_element_set_no": 999,
        "meta_rev_at_epoch": 326,
        "meta_bstar": 0.00045588,
        "meta_mean_motion_dot": 0.00014637,
        "meta_mean_motion_ddot": 0,
        "tle_line1": "1 66548U 25266D   25344.44640792  .00014637  00000+0  45588-3 0  9997",
        "tle_line2": "2 66548  52.0564 342.2049 0084034 165.1673 195.1807 15.30100759  3268"
      },
      "geometry": {
        "type": "Point",
        "coordinates": [
          71.97812880366423,
          52.028464523386994
        ]
      }
    }
  ]
}